{
  "type": "FeatureCollection",
  "features": [
    {
      "type": "Feature",
      "properties": {
        "norad_id": 33765,
        "name": "COSMOS 2251 DEB",
        "group": "cosmos-2251-debris",
        "lat": 67.86529242620063,
        "lon": -72.66844104804093,
        "alt_km": 560.3827537683501,
        "timestamp": "2025-12-22T20:43:46.240598+00:00",
        "meta_object_name": "COSMOS 2251 DEB",
        "meta_object_id": "1993-036N",
        "meta_epoch": "2025-12-22T03:19:16.051872",
        "meta_mean_motion": 15.10475433,
        "meta_eccentricity": 0.00649466,
        "meta_inclination": 74.0085,
        "meta_ra_of_asc_node": 153.6643,
        "meta_arg_of_pericenter": 244.2417,
        "meta_mean_anomaly": 239.1302,
        "meta_ephemeris_type": 0,
        "meta_classification_type": "U",
        "meta_norad_cat_id": 33765,
        "meta_element_set_no": 999,
        "meta_rev_at_epoch": 89760,
        "meta_bstar": 0.0017852281,
        "meta_mean_motion_dot": 0.00030997,
        "meta_mean_motion_ddot": 0,
        "tle_line1": "1 33765U 93036N   25356.13838023  .00030997  00000+0  17852-2 0  9996",
        "tle_line2": "2 33765  74.0085 153.6643 0064946 244.2417 239.1302 15.10475433897604"
      },
      "geometry": {
        "type": "Point",
        "coordinates": [
          -72.66844104804093,
          67.86529242620063
        ]
      }
    },
    {
      "type": "Feature",
      "properties": {
        "norad_id": 33766,
        "name": "COSMOS 2251 DEB",
        "group": "cosmos-2251-debris",
        "lat": 73.05513324788684,
        "lon": -131.87528977915827,
        "alt_km": 802.5930155573078,
        "timestamp": "2025-12-22T20:43:46.240609+00:00",
        "meta_object_name": "COSMOS 2251 DEB",
        "meta_object_id": "1993-036P",
        "meta_epoch": "2025-12-22T11:55:02.066016",
        "meta_mean_motion": 14.34961438,
        "meta_eccentricity": 0.00646591,
        "meta_inclination": 74.1859,
        "meta_ra_of_asc_node": 117.2614,
        "meta_arg_of_pericenter": 317.9573,
        "meta_mean_anomaly": 41.6627,
        "meta_ephemeris_type": 0,
        "meta_classification_type": "U",
        "meta_norad_cat_id": 33766,
        "meta_element_set_no": 999,
        "meta_rev_at_epoch": 87885,
        "meta_bstar": 0.00048090311,
        "meta_mean_motion_dot": 1.376e-05,
        "meta_mean_motion_ddot": 0,
        "tle_line1": "1 33766U 93036P   25356.49655169  .00001376  00000+0  48090-3 0  9992",
        "tle_line2": "2 33766  74.1859 117.2614 0064659 317.9573  41.6627 14.34961438878853"
      },
      "geometry": {
        "type": "Point",
        "coordinates": [
          -131.87528977915827,
          73.05513324788684
        ]
      }
    },
    {
      "type": "Feature",
      "properties": {
        "norad_id": 33768,
        "name": "COSMOS 2251 DEB",
        "group": "cosmos-2251-debris",
        "lat": 54.75914083666572,
        "lon": -0.32054990878179945,
        "alt_km": 1175.6846815313147,
        "timestamp": "2025-12-22T20:43:46.240619+00:00",
        "meta_object_name": "COSMOS 2251 DEB",
        "meta_object_id": "1993-036R",
        "meta_epoch": "2025-12-22T01:17:04.870176",
        "meta_mean_motion": 13.58462623,
        "meta_eccentricity": 0.03667533,
        "meta_inclination": 74.0666,
        "meta_ra_of_asc_node": 204.8363,
        "meta_arg_of_pericenter": 0.5492,
        "meta_mean_anomaly": 116.8883,
        "meta_ephemeris_type": 0,
        "meta_classification_type": "U",
        "meta_norad_cat_id": 33768,
        "meta_element_set_no": 999,
        "meta_rev_at_epoch": 83422,
        "meta_bstar": 0.00030353504,
        "meta_mean_motion_dot": 3.21e-06,
        "meta_mean_motion_ddot": 0,
        "tle_line1": "1 33768U 93036R   25356.05352859  .00000321  00000+0  30354-3 0  9999",
        "tle_line2": "2 33768  74.0666 204.8363 0366753   0.5492 116.8883 13.58462623834228"
      },
      "geometry": {
        "type": "Point",
        "coordinates": [
          -0.32054990878179945,
          54.75914083666572
        ]
      }
    },
    {
      "type": "Feature",
      "properties": {
        "norad_id": 33779,
        "name": "COSMOS 2251 DEB",
        "group": "cosmos-2251-debris",
        "lat": -60.683399362206565,
        "lon": 120.45964198341437,
        "alt_km": 669.7220485707057,
        "timestamp": "2025-12-22T20:43:46.240630+00:00",
        "meta_object_name": "COSMOS 2251 DEB",
        "meta_object_id": "1993-036U",
        "meta_epoch": "2025-12-22T11:31:04.428768",
        "meta_mean_motion": 14.70683648,
        "meta_eccentricity": 0.00161708,
        "meta_inclination": 74.0448,
        "meta_ra_of_asc_node": 151.8318,
        "meta_arg_of_pericenter": 184.7405,
        "meta_mean_anomaly": 238.7883,
        "meta_ephemeris_type": 0,
        "meta_classification_type": "U",
        "meta_norad_cat_id": 33779,
        "meta_element_set_no": 999,
        "meta_rev_at_epoch": 88671,
        "meta_bstar": 0.0028526829,
        "meta_mean_motion_dot": 0.00017426,
        "meta_mean_motion_ddot": 0,
        "tle_line1": "1 33779U 93036U   25356.47991237  .00017426  00000+0  28527-2 0  9998",
        "tle_line2": "2 33779  74.0448 151.8318 0016170 184.7405 238.7883 14.70683648886715"
      },
      "geometry": {
        "type": "Point",
        "coordinates": [
          120.45964198341437,
          -60.683399362206565
        ]
      }
    },
    {
      "type": "Feature",
      "properties": {
        "norad_id": 33782,
        "name": "COSMOS 2251 DEB",
        "group": "cosmos-2251-debris",
        "lat": 37.57113091762685,
        "lon": -88.45210324833451,
        "alt_km": 750.4920910766123,
        "timestamp": "2025-12-22T20:43:46.240640+00:00",
        "meta_object_name": "COSMOS 2251 DEB",
        "meta_object_id": "1993-036X",
        "meta_epoch": "2025-12-22T04:34:52.691232",
        "meta_mean_motion": 14.40470063,
        "meta_eccentricity": 0.00210685,
        "meta_inclination": 74.0329,
        "meta_ra_of_asc_node": 260.0676,
        "meta_arg_of_pericenter": 323.6469,
        "meta_mean_anomaly": 187.8209,
        "meta_ephemeris_type": 0,
        "meta_classification_type": "U",
        "meta_norad_cat_id": 33782,
        "meta_element_set_no": 999,
        "meta_rev_at_epoch": 88262,
        "meta_bstar": 0.00031907137,
        "meta_mean_motion_dot": 9.91e-06,
        "meta_mean_motion_ddot": 0,
        "tle_line1": "1 33782U 93036X   25356.19088763  .00000991  00000+0  31907-3 0  9998",
        "tle_line2": "2 33782  74.0329 260.0676 0021068 323.6469 187.8209 14.40470063882627"
      },
      "geometry": {
        "type": "Point",
        "coordinates": [
          -88.45210324833451,
          37.57113091762685
        ]
      }
    },
    {
      "type": "Feature",
      "properties": {
        "norad_id": 33785,
        "name": "COSMOS 2251 DEB",
        "group": "cosmos-2251-debris",
        "lat": -73.82521822411499,
        "lon": -53.57684632850591,
        "alt_km": 659.8063901730011,
        "timestamp": "2025-12-22T20:43:46.240651+00:00",
        "meta_object_name": "COSMOS 2251 DEB",
        "meta_object_id": "1993-036AA",
        "meta_epoch": "2025-12-22T13:42:36.152064",
        "meta_mean_motion": 14.70690222,
        "meta_eccentricity": 0.00231908,
        "meta_inclination": 73.8666,
        "meta_ra_of_asc_node": 40.6508,
        "meta_arg_of_pericenter": 338.2242,
        "meta_mean_anomaly": 183.1147,
        "meta_ephemeris_type": 0,
        "meta_classification_type": "U",
        "meta_norad_cat_id": 33785,
        "meta_element_set_no": 999,
        "meta_rev_at_epoch": 88651,
        "meta_bstar": 0.0020448971,
        "meta_mean_motion_dot": 0.000125,
        "meta_mean_motion_ddot": 0,
        "tle_line1": "1 33785U 93036AA  25356.57125176  .00012500  00000+0  20449-2 0  9990",
        "tle_line2": "2 33785  73.8666  40.6508 0023190 338.2242 183.1147 14.70690222886512"
      },
      "geometry": {
        "type": "Point",
        "coordinates": [
          -53.57684632850591,
          -73.82521822411499
        ]
      }
    },
    {
      "type": "Feature",
      "properties": {
        "norad_id": 33789,
        "name": "COSMOS 2251 DEB",
        "group": "cosmos-2251-debris",
        "lat": -10.377484125669252,
        "lon": 67.22532439892964,
        "alt_km": 1106.1672423052414,
        "timestamp": "2025-12-22T20:43:46.240661+00:00",
        "meta_object_name": "COSMOS 2251 DEB",
        "meta_object_id": "1993-036AE",
        "meta_epoch": "2025-12-22T12:13:46.639776",
        "meta_mean_motion": 13.88816834,
        "meta_eccentricity": 0.02397185,
        "meta_inclination": 74.0644,
        "meta_ra_of_asc_node": 70.8253,
        "meta_arg_of_pericenter": 184.3055,
        "meta_mean_anomaly": 194.2823,
        "meta_ephemeris_type": 0,
        "meta_classification_type": "U",
        "meta_norad_cat_id": 33789,
        "meta_element_set_no": 999,
        "meta_rev_at_epoch": 85231,
        "meta_bstar": 0.00062349104,
        "meta_mean_motion_dot": 9.24e-06,
        "meta_mean_motion_ddot": 0,
        "tle_line1": "1 33789U 93036AE  25356.50956759  .00000924  00000+0  62349-3 0  9999",
        "tle_line2": "2 33789  74.0644  70.8253 0239718 184.3055 194.2823 13.88816834852316"
      },
      "geometry": {
        "type": "Point",
        "coordinates": [
          67.22532439892964,
          -10.377484125669252
        ]
      }
    }
  ]
}